{"type": "FeatureCollection", "features": [ {"type": "Feature", "properties": {"norad_id": 36402, "name": "COSMOS 2460 (732)", "group": "gnss", "lat": 64.50499314911575, "lon": 33.31818889181064, "alt_km": 19129.32194033322, "timestamp": "2025-12-17T15:50:10.021304+00:00", "meta": {"OBJECT_NAME": "COSMOS 2460 (732)", "OBJECT_ID": "2010-007C", "EPOCH": "2025-12-15T05:47:00.728160", "MEAN_MOTION": 2.13106127, "ECCENTRICITY": 0.00026664, "INCLINATION": 65.5278, "RA_OF_ASC_NODE": 320.6882, "ARG_OF_PERICENTER": 275.3459, "MEAN_ANOMALY": 111.58, "EPHEMERIS_TYPE": 0, "CLASSIFICATION_TYPE": "U", "NORAD_CAT_ID": 36402, "ELEMENT_SET_NO": 999, "REV_AT_EPOCH": 12281, "BSTAR": 0, "MEAN_MOTION_DOT": -6.7e-07, "MEAN_MOTION_DDOT": 0}, "tle": {"line1": "1 36402U 10007C   25349.24098065 -.00000067  00000+0  00000+0 0  9992", "line2": "2 36402  65.5278 320.6882 0002666 275.3459 111.5800  2.13106127122817"}}, "geometry": {"type": "Point", "coordinates": [33.31818889181064, 64.50499314911575]}}, {"type": "Feature", "properties": {"norad_id": 36585, "name": "GPS BIIF-1  (PRN 25)", "group": "gnss", "lat": 33.19123025239522, "lon": 7.841484392759914, "alt_km": 20074.215038374987, "timestamp": "2025-12-17T15:50:10.021316+00:00", "meta": {"OBJECT_NAME": "GPS BIIF-1  (PRN 25)", "OBJECT_ID": "2010-022A", "EPOCH": "2025-12-16T01:01:22.883808", "MEAN_MOTION": 2.00553454, "ECCENTRICITY": 0.01262565, "INCLINATION": 54.2996, "RA_OF_ASC_NODE": 215.9407, "ARG_OF_PERICENTER": 65.1133, "MEAN_ANOMALY": 343.5127, "EPHEMERIS_TYPE": 0, "CLASSIFICATION_TYPE": "U", "NORAD_CAT_ID": 36585, "ELEMENT_SET_NO": 999, "REV_AT_EPOCH": 11392, "BSTAR": 0, "MEAN_MOTION_DOT": 7.2e-07, "MEAN_MOTION_DDOT": 0}, "tle": {"line1": "1 36585U 10022A   25350.04262597  .00000072  00000+0  00000+0 0  9999", "line2": "2 36585  54.2996 215.9407 0126256  65.1133 343.5127  2.00553454113922"}}, "geometry": {"type": "Point", "coordinates": [7.841484392759914, 33.19123025239522]}}, {"type": "Feature", "properties": {"norad_id": 36828, "name": "BEIDOU-2 IGSO-1 (C06)", "group": "gnss", "lat": -54.16902436140137, "lon": 70.95428710901562, "alt_km": 35657.6124461681, "timestamp": "2025-12-17T15:50:10.021328+00:00", "meta": {"OBJECT_NAME": "BEIDOU-2 IGSO-1 (C06)", "OBJECT_ID": "2010-036A", "EPOCH": "2025-12-14T21:38:21.623424", "MEAN_MOTION": 1.00275796, "ECCENTRICITY": 0.00512569, "INCLINATION": 54.2866, "RA_OF_ASC_NODE": 164.6279, "ARG_OF_PERICENTER": 215.8888, "MEAN_ANOMALY": 135.7931, "EPHEMERIS_TYPE": 0, "CLASSIFICATION_TYPE": "U", "NORAD_CAT_ID": 36828, "ELEMENT_SET_NO": 999, "REV_AT_EPOCH": 5624, "BSTAR": 0, "MEAN_MOTION_DOT": -2.4e-07, "MEAN_MOTION_DDOT": 0}, "tle": {"line1": "1 36828U 10036A   25348.90163916 -.00000024  00000+0  00000+0 0  9999", "line2": "2 36828  54.2866 164.6279 0051256 215.8888 135.7931  1.00275796 56247"}}, "geometry": {"type": "Point", "coordinates": [70.95428710901562, -54.16902436140137]}}, {"type": "Feature", "properties": {"norad_id": 37210, "name": "BEIDOU-2 G4 (C04)", "group": "gnss", "lat": 2.6084464042952407, "lon": 124.022969186091, "alt_km": 35818.827357238144, "timestamp": "2025-12-17T15:50:10.021341+00:00", "meta": {"OBJECT_NAME": "BEIDOU-2 G4 (C04)", "OBJECT_ID": "2010-057A", "EPOCH": "2025-12-17T03:48:54.739296", "MEAN_MOTION": 1.00271975, "ECCENTRICITY": 0.0010516, "INCLINATION": 3.1954, "RA_OF_ASC_NODE": 69.923, "ARG_OF_PERICENTER": 192.1891, "MEAN_ANOMALY": 41.2344, "EPHEMERIS_TYPE": 0, "CLASSIFICATION_TYPE": "U", "NORAD_CAT_ID": 37210, "ELEMENT_SET_NO": 999, "REV_AT_EPOCH": 5546, "BSTAR": 0, "MEAN_MOTION_DOT": -8.9e-07, "MEAN_MOTION_DDOT": 0}, "tle": {"line1": "1 37210U 10057A   25351.15896689 -.00000089  00000+0  00000+0 0  9990", "line2": "2 37210   3.1954  69.9230 0010516 192.1891  41.2344  1.00271975 55460"}}, "geometry": {"type": "Point", "coordinates": [124.022969186091, 2.6084464042952407]}}, {"type": "Feature", "properties": {"norad_id": 37256, "name": "BEIDOU-2 IGSO-2 (C07)", "group": "gnss", "lat": 16.616551029972026, "lon": 78.43174166468003, "alt_km": 35674.86623442453, "timestamp": "2025-12-17T15:50:10.021354+00:00", "meta": {"OBJECT_NAME": "BEIDOU-2 IGSO-2 (C07)", "OBJECT_ID": "2010-068A", "EPOCH": "2025-12-16T17:17:38.444640", "MEAN_MOTION": 1.00285618, "ECCENTRICITY": 0.0048244, "INCLINATION": 47.8781, "RA_OF_ASC_NODE": 274.0996, "ARG_OF_PERICENTER": 216.2935, "MEAN_ANOMALY": 322.4053, "EPHEMERIS_TYPE": 0, "CLASSIFICATION_TYPE": "U", "NORAD_CAT_ID": 37256, "ELEMENT_SET_NO": 999, "REV_AT_EPOCH": 5496, "BSTAR": 0, "MEAN_MOTION_DOT": -2.14e-06, "MEAN_MOTION_DDOT": 0}, "tle": {"line1": "1 37256U 10068A   25350.72058385 -.00000214  00000+0  00000+0 0  9997", "line2": "2 37256  47.8781 274.0996 0048244 216.2935 322.4053  1.00285618 54961"}}, "geometry": {"type": "Point", "coordinates": [78.43174166468003, 16.616551029972026]}}, {"type": "Feature", "properties": {"norad_id": 37384, "name": "BEIDOU-2 IGSO-3 (C08)", "group": "gnss", "lat": 25.739038467337913, "lon": 56.65422405757368, "alt_km": 35923.16397370383, "timestamp": "2025-12-17T15:50:10.021366+00:00", "meta": {"OBJECT_NAME": "BEIDOU-2 IGSO-3 (C08)", "OBJECT_ID": "2011-013A", "EPOCH": "2025-12-16T19:14:25.722240", "MEAN_MOTION": 1.00270021, "ECCENTRICITY": 0.00353731, "INCLINATION": 62.1488, "RA_OF_ASC_NODE": 41.877, "ARG_OF_PERICENTER": 187.9496, "MEAN_ANOMALY": 251.9313, "EPHEMERIS_TYPE": 0, "CLASSIFICATION_TYPE": "U", "NORAD_CAT_ID": 37384, "ELEMENT_SET_NO": 999, "REV_AT_EPOCH": 5383, "BSTAR": 0, "MEAN_MOTION_DOT": -1.84e-06, "MEAN_MOTION_DDOT": 0}, "tle": {"line1": "1 37384U 11013A   25350.80168660 -.00000184  00000+0  00000+0 0  9993", "line2": "2 37384  62.1488  41.8770 0035373 187.9496 251.9313  1.00270021 53834"}}, "geometry": {"type": "Point", "coordinates": [56.65422405757368, 25.739038467337913]}}, {"type": "Feature", "properties": {"norad_id": 37605, "name": "GSAT-8 (GAGAN/PRN 127)", "group": "gnss", "lat": -1.4904497501017178, "lon": 19.25839202114315, "alt_km": 35798.29580482369, "timestamp": "2025-12-17T15:50:10.021379+00:00", "meta": {"OBJECT_NAME": "GSAT-8 (GAGAN/PRN 127)", "OBJECT_ID": "2011-022A", "EPOCH": "2025-12-16T17:02:39.880320", "MEAN_MOTION": 1.00272991, "ECCENTRICITY": 0.00085796, "INCLINATION": 1.6598, "RA_OF_ASC_NODE": 84.1537, "ARG_OF_PERICENTER": 185.09, "MEAN_ANOMALY": 127.1054, "EPHEMERIS_TYPE": 0, "CLASSIFICATION_TYPE": "U", "NORAD_CAT_ID": 37605, "ELEMENT_SET_NO": 999, "REV_AT_EPOCH": 5138, "BSTAR": 0, "MEAN_MOTION_DOT": 1.07e-06, "MEAN_MOTION_DDOT": 0}, "tle": {"line1": "1 37605U 11022A   25350.71018380  .00000107  00000+0  00000+0 0  9996", "line2": "2 37605   1.6598  84.1537 0008579 185.0900 127.1054  1.00272991 51380"}}, "geometry": {"type": "Point", "coordinates": [19.25839202114315, -1.4904497501017178]}}, {"type": "Feature", "properties": {"norad_id": 37763, "name": "BEIDOU-2 IGSO-4 (C09)", "group": "gnss", "lat": -50.736694893602184, "lon": 47.982552725056834, "alt_km": 35202.922098519804, "timestamp": "2025-12-17T15:50:10.021391+00:00", "meta": {"OBJECT_NAME": "BEIDOU-2 IGSO-4 (C09)", "OBJECT_ID": "2011-038A", "EPOCH": "2025-12-15T07:50:06.120672", "MEAN_MOTION": 1.00281785, "ECCENTRICITY": 0.01493054, "INCLINATION": 54.5835, "RA_OF_ASC_NODE": 167.3229, "ARG_OF_PERICENTER": 230.222, "MEAN_ANOMALY": 258.6911, "EPHEMERIS_TYPE": 0, "CLASSIFICATION_TYPE": "U", "NORAD_CAT_ID": 37763, "ELEMENT_SET_NO": 999, "REV_AT_EPOCH": 5280, "BSTAR": 0, "MEAN_MOTION_DOT": 6.8e-07, "MEAN_MOTION_DDOT": 0}, "tle": {"line1": "1 37763U 11038A   25349.32645973  .00000068  00000+0  00000+0 0  9993", "line2": "2 37763  54.5835 167.3229 0149305 230.2220 258.6911  1.00281785 52800"}}, "geometry": {"type": "Point", "coordinates": [47.982552725056834, -50.736694893602184]}}, {"type": "Feature", "properties": {"norad_id": 37846, "name": "GSAT0101 (GALILEO-PFM)", "group": "gnss", "lat": 33.15850698038759, "lon": 11.757564981835316, "alt_km": 23217.03048785611, "timestamp": "2025-12-17T15:50:10.021405+00:00", "meta": {"OBJECT_NAME": "GSAT0101 (GALILEO-PFM)", "OBJECT_ID": "2011-060A", "EPOCH": "2025-12-15T20:00:41.819904", "MEAN_MOTION": 1.70475823, "ECCENTRICITY": 0.00030775, "INCLINATION": 57.052, "RA_OF_ASC_NODE": 346.7358, "ARG_OF_PERICENTER": 316.7426, "MEAN_ANOMALY": 43.2514, "EPHEMERIS_TYPE": 0, "CLASSIFICATION_TYPE": "U", "NORAD_CAT_ID": 37846, "ELEMENT_SET_NO": 999, "REV_AT_EPOCH": 8799, "BSTAR": 0, "MEAN_MOTION_DOT": -8.2e-07, "MEAN_MOTION_DDOT": 0}, "tle": {"line1": "1 37846U 11060A   25349.83381736 -.00000082  00000+0  00000+0 0  9997", "line2": "2 37846  57.0520 346.7358 0003077 316.7426  43.2514  1.70475823 87990"}}, "geometry": {"type": "Point", "coordinates": [11.757564981835316, 33.15850698038759]}}, {"type": "Feature", "properties": {"norad_id": 37847, "name": "GSAT0102 (GALILEO-FM2)", "group": "gnss", "lat": 56.83500778980422, "lon": 69.69034371556944, "alt_km": 23226.09184672939, "timestamp": "2025-12-17T15:50:10.021416+00:00", "meta": {"OBJECT_NAME": "GSAT0102 (GALILEO-FM2)", "OBJECT_ID": "2011-060B", "EPOCH": "2025-12-16T01:10:38.655264", "MEAN_MOTION": 1.7047605, "ECCENTRICITY": 0.00050527, "INCLINATION": 57.0527, "RA_OF_ASC_NODE": 346.7304, "ARG_OF_PERICENTER": 311.0932, "MEAN_ANOMALY": 226.4679, "EPHEMERIS_TYPE": 0, "CLASSIFICATION_TYPE": "U", "NORAD_CAT_ID": 37847, "ELEMENT_SET_NO": 999, "REV_AT_EPOCH": 8800, "BSTAR": 0, "MEAN_MOTION_DOT": -8.2e-07, "MEAN_MOTION_DDOT": 0}, "tle": {"line1": "1 37847U 11060B   25350.04905851 -.00000082  00000+0  00000+0 0  9993", "line2": "2 37847  57.0527 346.7304 0005052 311.0932 226.4679  1.70476050 88007"}}, "geometry": {"type": "Point", "coordinates": [69.69034371556944, 56.83500778980422]}}]}